*******************************************************************************
 Revised: Sep 08, 2007            Desdemona / (Uranus)                      710

 SATELLITE PHYSICAL PROPERTIES:
  Radius (km)           = 29 +- 3           Density (g cm^-3)   =
  Mass (10^20 kg )      =                   Geometric Albedo    =   0.07 
                                            V(1,0)              =  +9.8

 SATELLITE ORBITAL DATA:
  Semi-major axis, a (km) =  62.659 (10^3)  Orbital period      =  0.473651 d
  Eccentricity, e         =   0.000         Rotational period   = 
  Inclination, i  (deg)   =   0.2
*******************************************************************************
 
 
*******************************************************************************
Ephemeris / WWW_USER Sun Nov 12 08:40:11 2017 Pasadena, USA      / Horizons    
*******************************************************************************
Target body name: Desdemona (710)                 {source: ura086x}
Center body name: Solar System Barycenter (0)     {source: DE431mx}
Center-site name: BODY CENTER
*******************************************************************************
Start time      : A.D. 2017-Jul-10 00:00:00.0000 TDB
Stop  time      : A.D. 2020-Aug-13 00:00:00.0000 TDB
Step-size       : 1440 minutes
*******************************************************************************
Center geodetic : 0.00000000,0.00000000,0.0000000 {E-lon(deg),Lat(deg),Alt(km)}
Center cylindric: 0.00000000,0.00000000,0.0000000 {E-lon(deg),Dxy(km),Dz(km)}
Center radii    : (undefined)                                                  
Output units    : KM-S                                                         
Output type     : GEOMETRIC cartesian states
Output format   : 3 (position, velocity, LT, range, range-rate)
Reference frame : ICRF/J2000.0                                                 
Coordinate systm: Ecliptic and Mean Equinox of Reference Epoch                 
*******************************************************************************
            JDTDB,            Calendar Date (TDB),                      X,                      Y,                      Z,                     VX,                     VY,                     VZ,                     LT,                     RG,                     RR,
**************************************************************************************************************************************************************************************************************************************************************************
$$SOE
2458430.500000000, A.D. 2018-Nov-08 00:00:00.0000,  2.561898916886850E+09,  1.507641852667800E+09, -2.763691932204133E+07, -1.010175399135008E+01,  7.903972641347339E+00,  6.660852039707448E+00,  9.915931966409053E+03,  2.972721617570543E+09, -4.759072628758318E+00,
2458431.500000000, A.D. 2018-Nov-09 00:00:00.0000,  2.561578724526392E+09,  1.508130548182566E+09, -2.759303898530018E+07, -4.245491622112407E+00,  7.013134098623448E+00,  9.545541689815268E+00,  9.915837078413510E+03,  2.972693170865125E+09, -1.889968837728164E-01,
2458432.500000000, A.D. 2018-Nov-10 00:00:00.0000,  2.561287071012307E+09,  1.508613330560196E+09, -2.754602974593186E+07,  1.957364541159023E+00,  5.436807622577286E+00,  7.983021298067443E+00,  9.915814488912012E+03,  2.972686398702946E+09,  4.371639205255960E+00,
2458433.500000000, A.D. 2018-Nov-11 00:00:00.0000,  2.561018696366819E+09,  1.509088701062592E+09, -2.751525737856150E+07,  5.597185220384423E+00,  3.914079031324578E+00,  2.706859943493883E+00,  9.915847105493427E+03,  2.972696176908060E+09,  6.783979017530539E+00,
2458434.500000000, A.D. 2018-Nov-12 00:00:00.0000,  2.560757367821619E+09,  1.509558609466774E+09, -2.751249211363113E+07,  4.966145096802840E+00,  3.158779659975142E+00, -3.808086178880632E+00,  9.915891915767492E+03,  2.972709610690265E+09,  5.917236434780155E+00,
2458435.500000000, A.D. 2018-Nov-13 00:00:00.0000,  2.560483496843492E+09,  1.510027545703508E+09, -2.753633498592019E+07,  3.597922581441604E-01,  3.524698783643968E+00, -8.505815626360663E+00,  9.915900189278918E+03,  2.972712091026592E+09,  2.179105538289484E+00,
2458436.500000000, A.D. 2018-Nov-14 00:00:00.0000,  2.560183365392918E+09,  1.510500418124820E+09, -2.757292686572099E+07, -6.062352513711391E+00,  4.839872770188110E+00, -9.182745898589944E+00,  9.915840419883914E+03,  2.972694172612751E+09, -2.676665870956377E+00,
2458437.500000000, A.D. 2018-Nov-15 00:00:00.0000,  2.559855489747658E+09,  1.510980268461220E+09, -2.760243816882759E+07, -1.128812036934434E+01,  6.487167071685557E+00, -5.519904935298128E+00,  9.915712921620974E+03,  2.972655949595113E+09, -6.371949172515502E+00,
2458438.500000000, A.D. 2018-Nov-16 00:00:00.0000,  2.559511372666151E+09,  1.511466839096533E+09, -2.760832781829059E+07, -1.286492346205916E+01,  7.693205525918957E+00,  7.643554983299827E-01,  9.915549820537290E+03,  2.972607053120333E+09, -7.172490365191845E+00,
2458439.500000000, A.D. 2018-Nov-17 00:00:00.0000,  2.559170097978927E+09,  1.511956688126247E+09, -2.758516375000662E+07, -1.005356324854907E+01,  7.891880523589416E+00,  6.720667053244539E+00,  9.915399940431502E+03,  2.972562120195014E+09, -4.703682224325766E+00,
2458440.500000000, A.D. 2018-Nov-18 00:00:00.0000,  2.558849359214165E+09,  1.512444814453464E+09, -2.754112756390220E+07, -4.174054804319853E+00,  6.989927697572117E+00,  9.554329648297140E+00,  9.915305856793690E+03,  2.972533914629976E+09, -1.251573856100840E-01,
2458441.500000000, A.D. 2018-Nov-19 00:00:00.0000,  2.558557188319119E+09,  1.512926992757509E+09, -2.749420933515215E+07,  2.013955351204739E+00,  5.410490618964474E+00,  7.936164918481478E+00,  9.915283991168970E+03,  2.972527359480596E+09,  4.413852952719948E+00,
2458442.500000000, A.D. 2018-Nov-20 00:00:00.0000,  2.558288130493844E+09,  1.513401770050513E+09, -2.746375132498020E+07,  5.607108081111608E+00,  3.894355655458663E+00,  2.626645070356353E+00,  9.915316775475088E+03,  2.972537187968311E+09,  6.784165845620041E+00,
2458443.500000000, A.D. 2018-Nov-21 00:00:00.0000,  2.558025869382329E+09,  1.513871137591894E+09, -2.746133584239596E+07,  4.920504367377555E+00,  3.152009958982968E+00, -3.883771377800278E+00,  9.915361078403626E+03,  2.972550469652154E+09,  5.875482382188673E+00,
2458444.500000000, A.D. 2018-Nov-22 00:00:00.0000,  2.557750865832773E+09,  1.514339589383902E+09, -2.748542649114376E+07,  2.749950091263416E-01,  3.531238114371266E+00, -8.541878829661812E+00,  9.915368393505021E+03,  2.972552662664382E+09,  2.114559536806083E+00,
2458445.500000000, A.D. 2018-Nov-23 00:00:00.0000,  2.557449486825614E+09,  1.514812029104707E+09, -2.752203764698881E+07, -6.151303771853424E+00,  4.853923971758253E+00, -9.161756175020006E+00,  9.915307512035712E+03,  2.972534410859049E+09, -2.733935064235603E+00,
2458446.500000000, A.D. 2018-Nov-24 00:00:00.0000,  2.557120447970269E+09,  1.515291457779052E+09, -2.755131001667529E+07, -1.134402831490631E+01,  6.499266392153388E+00, -5.451962362135536E+00,  9.915179270559418E+03,  2.972495965031655E+09, -6.395149207578239E+00,
2458447.500000000, A.D. 2018-Nov-25 00:00:00.0000,  2.556775373901624E+09,  1.515777575737862E+09, -2.755682695086294E+07, -1.286672283434790E+01,  7.695033153799661E+00,  8.476514012635072E-01,  9.915016043251475E+03,  2.972447030715794E+09, -7.151252738875529E+00,
2458448.500000000, A.D. 2018-Nov-26 00:00:00.0000,  2.556433396072024E+09,  1.516266915632296E+09, -2.753329274992979E+07, -1.000457163525091E+01,  7.879721027034086E+00,  6.780476634961628E+00,  9.914866678940765E+03,  2.972402252421948E+09, -4.647738905783790E+00,
2458449.500000000, A.D. 2018-Nov-27 00:00:00.0000,  2.556112149371045E+09,  1.516754465761690E+09, -2.748908722160846E+07, -4.102219490691092E+00,  6.966710207138414E+00,  9.562214645483404E+00,  9.914773495912532E+03,  2.972374316852871E+09, -6.116349902100773E-02,
2458450.500000000, A.D. 2018-Nov-28 00:00:00.0000,  2.555819462399733E+09,  1.517236038673375E+09, -2.744226506984299E+07,  2.070161849446707E+00,  5.384399969802341E+00,  7.888989901233256E+00,  9.914752353291920E+03,  2.972367978454669E+09,  4.455664295250475E+00,
2458451.500000000, A.D. 2018-Nov-29 00:00:00.0000,  2.555549750327969E+09,  1.517710219018213E+09, -2.741209825026649E+07,  5.616984337819824E+00,  3.874688989419182E+00,  2.546238274624085E+00,  9.914785379569892E+03,  2.972377879483721E+09,  6.784245166910067E+00,
2458452.500000000, A.D. 2018-Nov-30 00:00:00.0000,  2.555286589627787E+09,  1.518179033382938E+09, -2.741006003707772E+07,  4.874284644511397E+00,  3.145268545162578E+00, -3.959586434348587E+00,  9.914829249853223E+03,  2.972391031463794E+09,  5.833286153848362E+00,
2458453.500000000, A.D. 2018-Dec-01 00:00:00.0000,  2.555010452099329E+09,  1.518646997172560E+09, -2.743441138789058E+07,  1.900587176948325E-01,  3.537693090091412E+00, -8.577300398329927E+00,  9.914835598944786E+03,  2.972392934873559E+09,  2.050005608155852E+00,
2458454.500000000, A.D. 2018-Dec-02 00:00:00.0000,  2.554707845496760E+09,  1.519118994073197E+09, -2.747106562232292E+07, -6.240078673256283E+00,  4.867720847236795E+00, -9.140603150148646E+00,  9.914773649631490E+03,  2.972374362936655E+09, -2.790977052109906E+00,
2458455.500000000, A.D. 2018-Dec-03 00:00:00.0000,  2.554377620566689E+09,  1.519597999339650E+09, -2.750013109918082E+07, -1.139977380848712E+01,  6.511217465358391E+00, -5.383650590423546E+00,  9.914644600779853E+03,  2.972335675064221E+09, -6.418132085588473E+00,
2458456.500000000, A.D. 2018-Dec-04 00:00:00.0000,  2.554031582846131E+09,  1.520083664927402E+09, -2.750527039845228E+07, -1.286767407054581E+01,  7.696631643120956E+00,  9.307520449173063E-01,  9.914481230512085E+03,  2.972286697890083E+09, -7.129366941615843E+00,
